{
  "type": "FeatureCollection",
  "features": [
    {
      "type": "Feature",
      "properties": {
        "norad_id": 26766,
        "name": "INTELSAT 10 (IS-10)",
        "group": "intelsat",
        "lat": 7.28647807273758,
        "lon": -176.5326213771844,
        "alt_km": 36126.89972647412,
        "timestamp": "2025-12-03T19:33:06.646913+00:00",
        "meta_object_name": "INTELSAT 10 (IS-10)",
        "meta_object_id": "2001-019A",
        "meta_epoch": "2025-12-03T11:53:38.524992",
        "meta_mean_motion": 0.99078102,
        "meta_eccentricity": 0.0007771,
        "meta_inclination": 8.6063,
        "meta_ra_of_asc_node": 61.2471,
        "meta_arg_of_pericenter": 218.7876,
        "meta_mean_anomaly": 149.4282,
        "meta_ephemeris_type": 0,
        "meta_classification_type": "U",
        "meta_norad_cat_id": 26766,
        "meta_element_set_no": 999,
        "meta_rev_at_epoch": 4364,
        "meta_bstar": 0,
        "meta_mean_motion_dot": -1.56e-06,
        "meta_mean_motion_ddot": 0,
        "tle_line1": "1 26766U 01019A   25337.49558478 -.00000156  00000+0  00000+0 0  9999",
        "tle_line2": "2 26766   8.6063  61.2471 0007771 218.7876 149.4282  0.99078102 43647"
      },
      "geometry": {
        "type": "Point",
        "coordinates": [
          -176.5326213771844,
          7.28647807273758
        ]
      }
    },
    {
      "type": "Feature",
      "properties": {
        "norad_id": 26900,
        "name": "INTELSAT 902 (IS-902)",
        "group": "intelsat",
        "lat": -4.966373839823795,
        "lon": -44.03940504591809,
        "alt_km": 35780.14627875603,
        "timestamp": "2025-12-03T19:33:06.646937+00:00",
        "meta_object_name": "INTELSAT 902 (IS-902)",
        "meta_object_id": "2001-039A",
        "meta_epoch": "2025-12-01T16:59:59.311968",
        "meta_mean_motion": 1.00270327,
        "meta_eccentricity": 0.00043097,
        "meta_inclination": 5.6187,
        "meta_ra_of_asc_node": 74.2002,
        "meta_arg_of_pericenter": 175.119,
        "meta_mean_anomaly": 26.3816,
        "meta_ephemeris_type": 0,
        "meta_classification_type": "U",
        "meta_norad_cat_id": 26900,
        "meta_element_set_no": 999,
        "meta_rev_at_epoch": 8871,
        "meta_bstar": 0,
        "meta_mean_motion_dot": -2.63e-06,
        "meta_mean_motion_ddot": 0,
        "tle_line1": "1 26900U 01039A   25335.70832537 -.00000263  00000+0  00000+0 0  9993",
        "tle_line2": "2 26900   5.6187  74.2002 0004309 175.1190  26.3816  1.00270327 88713"
      },
      "geometry": {
        "type": "Point",
        "coordinates": [
          -44.03940504591809,
          -4.966373839823795
        ]
      }
    },
    {
      "type": "Feature",
      "properties": {
        "norad_id": 27380,
        "name": "INTELSAT 904 (IS-904)",
        "group": "intelsat",
        "lat": -6.3842923448337565,
        "lon": -25.362863767461615,
        "alt_km": 35784.57258861459,
        "timestamp": "2025-12-03T19:33:06.646953+00:00",
        "meta_object_name": "INTELSAT 904 (IS-904)",
        "meta_object_id": "2002-007A",
        "meta_epoch": "2025-12-03T03:19:57.879840",
        "meta_mean_motion": 1.00269372,
        "meta_eccentricity": 0.00015814,
        "meta_inclination": 6.4293,
        "meta_ra_of_asc_node": 71.5412,
        "meta_arg_of_pericenter": 200.7188,
        "meta_mean_anomaly": 178.4698,
        "meta_ephemeris_type": 0,
        "meta_classification_type": "U",
        "meta_norad_cat_id": 27380,
        "meta_element_set_no": 999,
        "meta_rev_at_epoch": 4980,
        "meta_bstar": 0,
        "meta_mean_motion_dot": -2.1e-06,
        "meta_mean_motion_ddot": 0,
        "tle_line1": "1 27380U 02007A   25337.13886435 -.00000210  00000+0  00000+0 0  9999",
        "tle_line2": "2 27380   6.4293  71.5412 0001581 200.7188 178.4698  1.00269372 49801"
      },
      "geometry": {
        "type": "Point",
        "coordinates": [
          -25.362863767461615,
          -6.3842923448337565
        ]
      }
    },
    {
      "type": "Feature",
      "properties": {
        "norad_id": 27426,
        "name": "DIRECTV 5 (TEMPO 1)",
        "group": "intelsat",
        "lat": 0.10649750890049167,
        "lon": -103.96823362731324,
        "alt_km": 35770.54711445453,
        "timestamp": "2025-12-03T19:33:06.646966+00:00",
        "meta_object_name": "DIRECTV 5 (TEMPO 1)",
        "meta_object_id": "2002-023A",
        "meta_epoch": "2025-12-03T09:48:28.408032",
        "meta_mean_motion": 1.00271174,
        "meta_eccentricity": 0.0003776,
        "meta_inclination": 4.3765,
        "meta_ra_of_asc_node": 77.7618,
        "meta_arg_of_pericenter": 189.4718,
        "meta_mean_anomaly": 202.2592,
        "meta_ephemeris_type": 0,
        "meta_classification_type": "U",
        "meta_norad_cat_id": 27426,
        "meta_element_set_no": 999,
        "meta_rev_at_epoch": 8616,
        "meta_bstar": 0,
        "meta_mean_motion_dot": -4e-07,
        "meta_mean_motion_ddot": 0,
        "tle_line1": "1 27426U 02023A   25337.40866213 -.00000040  00000+0  00000+0 0  9991",
        "tle_line2": "2 27426   4.3765  77.7618 0003776 189.4718 202.2592  1.00271174 86161"
      },
      "geometry": {
        "type": "Point",
        "coordinates": [
          -103.96823362731324,
          0.10649750890049167
        ]
      }
    },
    {
      "type": "Feature",
      "properties": {
        "norad_id": 27438,
        "name": "INTELSAT 905 (IS-905)",
        "group": "intelsat",
        "lat": 2.436956775851909,
        "lon": -130.9175624734862,
        "alt_km": 35774.09523989121,
        "timestamp": "2025-12-03T19:33:06.646979+00:00",
        "meta_object_name": "INTELSAT 905 (IS-905)",
        "meta_object_id": "2002-027A",
        "meta_epoch": "2025-12-03T09:40:44.148864",
        "meta_mean_motion": 1.00273288,
        "meta_eccentricity": 0.000313,
        "meta_inclination": 6.2606,
        "meta_ra_of_asc_node": 72.1621,
        "meta_arg_of_pericenter": 189.1417,
        "meta_mean_anomaly": 179.1858,
        "meta_ephemeris_type": 0,
        "meta_classification_type": "U",
        "meta_norad_cat_id": 27438,
        "meta_element_set_no": 999,
        "meta_rev_at_epoch": 4940,
        "meta_bstar": 0,
        "meta_mean_motion_dot": 1.09e-06,
        "meta_mean_motion_ddot": 0,
        "tle_line1": "1 27438U 02027A   25337.40328876  .00000109  00000+0  00000+0 0  9991",
        "tle_line2": "2 27438   6.2606  72.1621 0003130 189.1417 179.1858  1.00273288 49400"
      },
      "geometry": {
        "type": "Point",
        "coordinates": [
          -130.9175624734862,
          2.436956775851909
        ]
      }
    },
    {
      "type": "Feature",
      "properties": {
        "norad_id": 27445,
        "name": "GALAXY 3C (G-3C)",
        "group": "intelsat",
        "lat": -0.6240831547108241,
        "lon": -88.70369222208652,
        "alt_km": 35786.848588642,
        "timestamp": "2025-12-03T19:33:06.646991+00:00",
        "meta_object_name": "GALAXY 3C (G-3C)",
        "meta_object_id": "2002-030A",
        "meta_epoch": "2025-12-03T09:52:50.491200",
        "meta_mean_motion": 1.00270115,
        "meta_eccentricity": 0.0001284,
        "meta_inclination": 3.2391,
        "meta_ra_of_asc_node": 80.6023,
        "meta_arg_of_pericenter": 98.3929,
        "meta_mean_anomaly": 306.8593,
        "meta_ephemeris_type": 0,
        "meta_classification_type": "U",
        "meta_norad_cat_id": 27445,
        "meta_element_set_no": 999,
        "meta_rev_at_epoch": 4453,
        "meta_bstar": 0,
        "meta_mean_motion_dot": -1.35e-06,
        "meta_mean_motion_ddot": 0,
        "tle_line1": "1 27445U 02030A   25337.41169550 -.00000135  00000+0  00000+0 0  9996",
        "tle_line2": "2 27445   3.2391  80.6023 0001284  98.3929 306.8593  1.00270115 44533"
      },
      "geometry": {
        "type": "Point",
        "coordinates": [
          -88.70369222208652,
          -0.6240831547108241
        ]
      }
    },
    {
      "type": "Feature",
      "properties": {
        "norad_id": 27513,
        "name": "INTELSAT 906 (IS-906)",
        "group": "intelsat",
        "lat": -0.4374529029076372,
        "lon": 70.33838389953917,
        "alt_km": 35810.49281007406,
        "timestamp": "2025-12-03T19:33:06.647004+00:00",
        "meta_object_name": "INTELSAT 906 (IS-906)",
        "meta_object_id": "2002-041A",
        "meta_epoch": "2025-12-03T08:55:25.991040",
        "meta_mean_motion": 1.00273124,
        "meta_eccentricity": 0.0006118,
        "meta_inclination": 5.3053,
        "meta_ra_of_asc_node": 75.3426,
        "meta_arg_of_pericenter": 192.3717,
        "meta_mean_anomaly": 2.7424,
        "meta_ephemeris_type": 0,
        "meta_classification_type": "U",
        "meta_norad_cat_id": 27513,
        "meta_element_set_no": 999,
        "meta_rev_at_epoch": 8506,
        "meta_bstar": 0,
        "meta_mean_motion_dot": 2.9e-07,
        "meta_mean_motion_ddot": 0,
        "tle_line1": "1 27513U 02041A   25337.37182860  .00000029  00000+0  00000+0 0  9999",
        "tle_line2": "2 27513   5.3053  75.3426 0006118 192.3717   2.7424  1.00273124 85067"
      },
      "geometry": {
        "type": "Point",
        "coordinates": [
          70.33838389953917,
          -0.4374529029076372
        ]
      }
    }
  ]
}